<?xml version="1.0" encoding="UTF-8"?>
<ndm xmlns:xsi="http://www.w3.org/2001/XMLSchema-instance" xsi:noNamespaceSchemaLocation="https://sanaregistry.org/r/ndmxml_unqualified/ndmxml-2.0.0-master-2.0.xsd">
<omm id="CCSDS_OMM_VERS" version="2.0">
<header><CREATION_DATE/><ORIGINATOR/></header><body><segment><metadata><OBJECT_NAME>KUIPER-00027</OBJECT_NAME><OBJECT_ID>2025-088S</OBJECT_ID><CENTER_NAME>EARTH</CENTER_NAME><REF_FRAME>TEME</REF_FRAME><TIME_SYSTEM>UTC</TIME_SYSTEM><MEAN_ELEMENT_THEORY>SGP4</MEAN_ELEMENT_THEORY></metadata><data><meanElements><EPOCH>2025-12-31T09:18:10.868256</EPOCH><MEAN_MOTION>14.79969243</MEAN_MOTION><ECCENTRICITY>.0003498</ECCENTRICITY><INCLINATION>51.9021</INCLINATION><RA_OF_ASC_NODE>37.6089</RA_OF_ASC_NODE><ARG_OF_PERICENTER>307.7500</ARG_OF_PERICENTER><MEAN_ANOMALY>52.3145</MEAN_ANOMALY></meanElements><tleParameters><EPHEMERIS_TYPE>0</EPHEMERIS_TYPE><CLASSIFICATION_TYPE>U</CLASSIFICATION_TYPE><NORAD_CAT_ID>63740</NORAD_CAT_ID><ELEMENT_SET_NO>999</ELEMENT_SET_NO><REV_AT_EPOCH>3750</REV_AT_EPOCH><BSTAR>.12733E-2</BSTAR><MEAN_MOTION_DOT>.9508E-4</MEAN_MOTION_DOT><MEAN_MOTION_DDOT>0</MEAN_MOTION_DDOT></tleParameters></data></segment></body></omm>
<omm id="CCSDS_OMM_VERS" version="2.0">
<header><CREATION_DATE/><ORIGINATOR/></header><body><segment><metadata><OBJECT_NAME>KUIPER-00028</OBJECT_NAME><OBJECT_ID>2025-088T</OBJECT_ID><CENTER_NAME>EARTH</CENTER_NAME><REF_FRAME>TEME</REF_FRAME><TIME_SYSTEM>UTC</TIME_SYSTEM><MEAN_ELEMENT_THEORY>SGP4</MEAN_ELEMENT_THEORY></metadata><data><meanElements><EPOCH>2025-12-31T11:21:07.479072</EPOCH><MEAN_MOTION>14.79785865</MEAN_MOTION><ECCENTRICITY>.0003964</ECCENTRICITY><INCLINATION>51.9008</INCLINATION><RA_OF_ASC_NODE>35.2116</RA_OF_ASC_NODE><ARG_OF_PERICENTER>319.4675</ARG_OF_PERICENTER><MEAN_ANOMALY>40.5992</MEAN_ANOMALY></meanElements><tleParameters><EPHEMERIS_TYPE>0</EPHEMERIS_TYPE><CLASSIFICATION_TYPE>U</CLASSIFICATION_TYPE><NORAD_CAT_ID>63741</NORAD_CAT_ID><ELEMENT_SET_NO>999</ELEMENT_SET_NO><REV_AT_EPOCH>3795</REV_AT_EPOCH><BSTAR>.80891E-3</BSTAR><MEAN_MOTION_DOT>.5929E-4</MEAN_MOTION_DOT><MEAN_MOTION_DDOT>0</MEAN_MOTION_DDOT></tleParameters></data></segment></body></omm>
<omm id="CCSDS_OMM_VERS" version="2.0">
<header><CREATION_DATE/><ORIGINATOR/></header><body><segment><metadata><OBJECT_NAME>KUIPER-00029</OBJECT_NAME><OBJECT_ID>2025-088U</OBJECT_ID><CENTER_NAME>EARTH</CENTER_NAME><REF_FRAME>TEME</REF_FRAME><TIME_SYSTEM>UTC</TIME_SYSTEM><MEAN_ELEMENT_THEORY>SGP4</MEAN_ELEMENT_THEORY></metadata><data><meanElements><EPOCH>2025-12-31T12:00:02.000160</EPOCH><MEAN_MOTION>14.79133516</MEAN_MOTION><ECCENTRICITY>.0000665</ECCENTRICITY><INCLINATION>51.9014</INCLINATION><RA_OF_ASC_NODE>33.1468</RA_OF_ASC_NODE><ARG_OF_PERICENTER>249.7844</ARG_OF_PERICENTER><MEAN_ANOMALY>332.3939</MEAN_ANOMALY></meanElements><tleParameters><EPHEMERIS_TYPE>0</EPHEMERIS_TYPE><CLASSIFICATION_TYPE>U</CLASSIFICATION_TYPE><NORAD_CAT_ID>63742</NORAD_CAT_ID><ELEMENT_SET_NO>999</ELEMENT_SET_NO><REV_AT_EPOCH>177</REV_AT_EPOCH><BSTAR>.98369E-2</BSTAR><MEAN_MOTION_DOT>.74178E-3</MEAN_MOTION_DOT><MEAN_MOTION_DDOT>0</MEAN_MOTION_DDOT></tleParameters></data></segment></body></omm>
<omm id="CCSDS_OMM_VERS" version="2.0">
<header><CREATION_DATE/><ORIGINATOR/></header><body><segment><metadata><OBJECT_NAME>KUIPER-00030</OBJECT_NAME><OBJECT_ID>2025-088V</OBJECT_ID><CENTER_NAME>EARTH</CENTER_NAME><REF_FRAME>TEME</REF_FRAME><TIME_SYSTEM>UTC</TIME_SYSTEM><MEAN_ELEMENT_THEORY>SGP4</MEAN_ELEMENT_THEORY></metadata><data><meanElements><EPOCH>2025-12-31T12:09:13.374720</EPOCH><MEAN_MOTION>14.79925435</MEAN_MOTION><ECCENTRICITY>.001422</ECCENTRICITY><INCLINATION>51.9018</INCLINATION><RA_OF_ASC_NODE>52.0442</RA_OF_ASC_NODE><ARG_OF_PERICENTER>203.3559</ARG_OF_PERICENTER><MEAN_ANOMALY>156.6758</MEAN_ANOMALY></meanElements><tleParameters><EPHEMERIS_TYPE>0</EPHEMERIS_TYPE><CLASSIFICATION_TYPE>U</CLASSIFICATION_TYPE><NORAD_CAT_ID>63743</NORAD_CAT_ID><ELEMENT_SET_NO>999</ELEMENT_SET_NO><REV_AT_EPOCH>3753</REV_AT_EPOCH><BSTAR>-.16433E-3</BSTAR><MEAN_MOTION_DOT>-.1479E-4</MEAN_MOTION_DOT><MEAN_MOTION_DDOT>0</MEAN_MOTION_DDOT></tleParameters></data></segment></body></omm>
<omm id="CCSDS_OMM_VERS" version="2.0">
<header><CREATION_DATE/><ORIGINATOR/></header><body><segment><metadata><OBJECT_NAME>KUIPER-00031</OBJECT_NAME><OBJECT_ID>2025-088W</OBJECT_ID><CENTER_NAME>EARTH</CENTER_NAME><REF_FRAME>TEME</REF_FRAME><TIME_SYSTEM>UTC</TIME_SYSTEM><MEAN_ELEMENT_THEORY>SGP4</MEAN_ELEMENT_THEORY></metadata><data><meanElements><EPOCH>2025-12-31T10:53:11.122080</EPOCH><MEAN_MOTION>14.79892248</MEAN_MOTION><ECCENTRICITY>.0002716</ECCENTRICITY><INCLINATION>51.9005</INCLINATION><RA_OF_ASC_NODE>38.3504</RA_OF_ASC_NODE><ARG_OF_PERICENTER>252.2883</ARG_OF_PERICENTER><MEAN_ANOMALY>107.7783</MEAN_ANOMALY></meanElements><tleParameters><EPHEMERIS_TYPE>0</EPHEMERIS_TYPE><CLASSIFICATION_TYPE>U</CLASSIFICATION_TYPE><NORAD_CAT_ID>63744</NORAD_CAT_ID><ELEMENT_SET_NO>999</ELEMENT_SET_NO><REV_AT_EPOCH>3743</REV_AT_EPOCH><BSTAR>.11839E-2</BSTAR><MEAN_MOTION_DOT>.8807E-4</MEAN_MOTION_DOT><MEAN_MOTION_DDOT>0</MEAN_MOTION_DDOT></tleParameters></data></segment></body></omm>
<omm id="CCSDS_OMM_VERS" version="2.0">
<header><CREATION_DATE/><ORIGINATOR/></header><body><segment><metadata><OBJECT_NAME>KUIPER-00032</OBJECT_NAME><OBJECT_ID>2025-088X</OBJECT_ID><CENTER_NAME>EARTH</CENTER_NAME><REF_FRAME>TEME</REF_FRAME><TIME_SYSTEM>UTC</TIME_SYSTEM><MEAN_ELEMENT_THEORY>SGP4</MEAN_ELEMENT_THEORY></metadata><data><meanElements><EPOCH>2025-12-31T06:29:45.347136</EPOCH><MEAN_MOTION>15.34217496</MEAN_MOTION><ECCENTRICITY>.0002852</ECCENTRICITY><INCLINATION>51.8720</INCLINATION><RA_OF_ASC_NODE>354.2091</RA_OF_ASC_NODE><ARG_OF_PERICENTER>242.9871</ARG_OF_PERICENTER><MEAN_ANOMALY>117.0823</MEAN_ANOMALY></meanElements><tleParameters><EPHEMERIS_TYPE>0</EPHEMERIS_TYPE><CLASSIFICATION_TYPE>U</CLASSIFICATION_TYPE><NORAD_CAT_ID>63745</NORAD_CAT_ID><ELEMENT_SET_NO>999</ELEMENT_SET_NO><REV_AT_EPOCH>3903</REV_AT_EPOCH><BSTAR>.70388E-3</BSTAR><MEAN_MOTION_DOT>.23365E-3</MEAN_MOTION_DOT><MEAN_MOTION_DDOT>0</MEAN_MOTION_DDOT></tleParameters></data></segment></body></omm>
<omm id="CCSDS_OMM_VERS" version="2.0">
<header><CREATION_DATE/><ORIGINATOR/></header><body><segment><metadata><OBJECT_NAME>KUIPER-00033</OBJECT_NAME><OBJECT_ID>2025-088Y</OBJECT_ID><CENTER_NAME>EARTH</CENTER_NAME><REF_FRAME>TEME</REF_FRAME><TIME_SYSTEM>UTC</TIME_SYSTEM><MEAN_ELEMENT_THEORY>SGP4</MEAN_ELEMENT_THEORY></metadata><data><meanElements><EPOCH>2025-12-31T10:06:29.741184</EPOCH><MEAN_MOTION>14.79895150</MEAN_MOTION><ECCENTRICITY>.000301</ECCENTRICITY><INCLINATION>51.9015</INCLINATION><RA_OF_ASC_NODE>68.4809</RA_OF_ASC_NODE><ARG_OF_PERICENTER>323.9688</ARG_OF_PERICENTER><MEAN_ANOMALY>36.1071</MEAN_ANOMALY></meanElements><tleParameters><EPHEMERIS_TYPE>0</EPHEMERIS_TYPE><CLASSIFICATION_TYPE>U</CLASSIFICATION_TYPE><NORAD_CAT_ID>63746</NORAD_CAT_ID><ELEMENT_SET_NO>999</ELEMENT_SET_NO><REV_AT_EPOCH>3749</REV_AT_EPOCH><BSTAR>-.17777E-3</BSTAR><MEAN_MOTION_DOT>-.1575E-4</MEAN_MOTION_DOT><MEAN_MOTION_DDOT>0</MEAN_MOTION_DDOT></tleParameters></data></segment></body></omm>
<omm id="CCSDS_OMM_VERS" version="2.0">
<header><CREATION_DATE/><ORIGINATOR/></header><body><segment><metadata><OBJECT_NAME>KUIPER-00034</OBJECT_NAME><OBJECT_ID>2025-088Z</OBJECT_ID><CENTER_NAME>EARTH</CENTER_NAME><REF_FRAME>TEME</REF_FRAME><TIME_SYSTEM>UTC</TIME_SYSTEM><MEAN_ELEMENT_THEORY>SGP4</MEAN_ELEMENT_THEORY></metadata><data><meanElements><EPOCH>2025-12-31T07:50:10.913280</EPOCH><MEAN_MOTION>14.79948639</MEAN_MOTION><ECCENTRICITY>.0000642</ECCENTRICITY><INCLINATION>51.9020</INCLINATION><RA_OF_ASC_NODE>31.4133</RA_OF_ASC_NODE><ARG_OF_PERICENTER>318.3168</ARG_OF_PERICENTER><MEAN_ANOMALY>41.7746</MEAN_ANOMALY></meanElements><tleParameters><EPHEMERIS_TYPE>0</EPHEMERIS_TYPE><CLASSIFICATION_TYPE>U</CLASSIFICATION_TYPE><NORAD_CAT_ID>63747</NORAD_CAT_ID><ELEMENT_SET_NO>999</ELEMENT_SET_NO><REV_AT_EPOCH>3768</REV_AT_EPOCH><BSTAR>.89857E-4</BSTAR><MEAN_MOTION_DOT>.464E-5</MEAN_MOTION_DOT><MEAN_MOTION_DDOT>0</MEAN_MOTION_DDOT></tleParameters></data></segment></body></omm>

</ndm>
