KUIPER-00027            
1 63740U 25088S   25365.38762579  .00009508  00000+0  12733-2 0  9990
2 63740  51.9021  37.6089 0003498 307.7500  52.3145 14.79969243 37508
KUIPER-00028            
1 63741U 25088T   25365.47300323  .00005929  00000+0  80891-3 0  9990
2 63741  51.9008  35.2116 0003964 319.4675  40.5992 14.79785865 37954
KUIPER-00029            
1 63742U 25088U   25365.50002315  .00074178  00000+0  98369-2 0  9995
2 63742  51.9014  33.1468 0000665 249.7844 332.3939 14.79133516  1771
KUIPER-00030            
1 63743U 25088V   25365.50640480 -.00001479  00000+0 -16433-3 0  9996
2 63743  51.9018  52.0442 0014220 203.3559 156.6758 14.79925435 37537
KUIPER-00031            
1 63744U 25088W   25365.45360095  .00008807  00000+0  11839-2 0  9996
2 63744  51.9005  38.3504 0002716 252.2883 107.7783 14.79892248 37439
KUIPER-00032            
1 63745U 25088X   25365.27066374  .00023365  00000+0  70388-3 0  9991
2 63745  51.8720 354.2091 0002852 242.9871 117.0823 15.34217496 39033
KUIPER-00033            
1 63746U 25088Y   25365.42117756 -.00001575  00000+0 -17777-3 0  9994
2 63746  51.9015  68.4809 0003010 323.9688  36.1071 14.79895150 37497
KUIPER-00034            
1 63747U 25088Z   25365.32651520  .00000464  00000+0  89857-4 0  9999
2 63747  51.9020  31.4133 0000642 318.3168  41.7746 14.79948639 37686
